COSMOS 2242             
1 22626U 93024A   26090.43232985  .00003408  00000+0  29614-3 0  9998
2 22626  82.5167 245.9134 0015221 228.9610 131.0297 14.96645383783646
SL-16 R/B               
1 22803U 93059B   26090.07473650 -.00000157  00000+0 -53685-4 0  9995
2 22803  70.9914 326.0327 0017296 185.3137 174.7806 14.17234538682561
ARIANE 40 R/B           
1 22830U 93061H   26090.41578713  .00000271  00000+0  11495-3 0  9999
2 22830  98.4876 158.8705 0010146 214.2956 145.7574 14.32872678697210
COSMOS 2278             
1 23087U 94023A   26090.52204009 -.00000113  00000+0 -34524-4 0  9995
2 23087  71.0510 129.4230 0009241 340.2097  19.8665 14.14374929647891
SL-16 R/B               
1 23088U 94023B   26090.55869701  .00000304  00000+0  18134-3 0  9993
2 23088  71.0025  24.9584 0005508 265.8842  94.1651 14.15017450649185
SL-16 R/B               
1 23343U 94074B   26090.52426188  .00000659  00000+0  94883-4 0  9997
2 23343  97.7076 120.4548 0007474 140.6216  26.3571 14.79433277690476
SL-16 R/B               
1 23405U 94077B   26090.31976804 -.00000125  00000+0 -39603-4 0  9990
2 23405  70.9830 306.9852 0001799 195.1952 164.9117 14.15569029619292
ARIANE 40+ R/B          
1 23561U 95021B   26090.48962284  .00000381  00000+0  13542-3 0  9993
2 23561  98.4459 161.6727 0007896  80.3952 290.4651 14.39788277622389
SL-16 R/B               
1 23705U 95058B   26090.53981265 -.00000181  00000+0 -68169-4 0  9995
2 23705  71.0197 134.3839 0010184  85.5031 274.7255 14.15498354570942
SL-16 R/B               
1 24298U 96051B   26090.55396253  .00000148  00000+0  10702-3 0  9996
2 24298  70.7583 128.9624 0013324 112.4783 247.7749 14.12422119524736
ORBVIEW 2 (SEASTAR)     
1 24883U 97037A   26090.44362105  .00000378  00000+0  14776-3 0  9998
2 24883  98.8604 255.3361 0002267  23.2236 336.9051 14.35510453511591
SL-16 R/B               
1 25400U 98043G   26090.34186657  .00000085  00000+0  54646-4 0  9993
2 25400  98.8291  43.8636 0009095 316.6829  43.3635 14.26054896442074
